COMMENT,ORIGINATOR,NORAD_CAT_ID,OBJECT_NAME,OBJECT_TYPE,CLASSIFICATION_TYPE,INTLDES,EPOCH,EPOCH_MICROSECONDS,MEAN_MOTION,ECCENTRICITY,INCLINATION,RA_OF_ASC_NODE,ARG_OF_PERICENTER,MEAN_ANOMALY,EPHEMERIS_TYPE,ELEMENT_SET_NO,REV_AT_EPOCH,BSTAR,MEAN_MOTION_DOT,MEAN_MOTION_DDOT,FILE,TLE_LINE0,TLE_LINE1,TLE_LINE2,OBJECT_ID,OBJECT_NUMBER,SEMIMAJOR_AXIS,PERIOD,APOGEE,PERIGEE,DECAYED
GENERATED VIA SPACETRACK.ORG API,18 SPCS,52365,STARLINK-3874,PAYLOAD,U,22045AL,2022-06-09 14:00:01,224,15.73129019,0.0002642,53.2142,234.8452,19.3993,167.5926,0,999,130,0.00043011,0.00059998,0,3488214,0 STARLINK-3874,1 52365U 22045AL  22160.58334491  .00059998  00000-0  43011-3 0  9994,2 52365  53.2142 234.8452 0002642  19.3993 167.5926 15.73129019  1304,2022-045AL,52365,6728.098,91.537,351.74,348.185,0
GENERATED VIA SPACETRACK.ORG API,18 SPCS,52365,STARLINK-3874,PAYLOAD,U,22045AL,2022-06-09 22:00:00,999936,15.73189552,0.0002543,53.2141,233.1942,19.9069,255.9655,0,999,130,7.9165e-05,0.00010499,0,3489040,0 STARLINK-3874,1 52365U 22045AL  22160.91667824  .00010499  00000-0  79165-4 0  9993,2 52365  53.2141 233.1942 0002543  19.9069 255.9655 15.73189552  1308,2022-045AL,52365,6727.925,91.534,351.501,348.079,0
GENERATED VIA SPACETRACK.ORG API,18 SPCS,52365,STARLINK-3874,PAYLOAD,U,22045AL,2022-06-10 00:00:00,999648,15.73169083,0.0002467,53.2142,232.7813,20.2571,7.8513,0,999,902,0.00046326,0.00064817,0,3488955,0 STARLINK-3874,1 52365U 22045AL  22161.00001157  .00064817  00000-0  46326-3 0  9990,2 52365  53.2142 232.7813 0002467  20.2571   7.8513 15.73169083  9020,2022-045AL,52365,6727.983,91.535,351.508,348.189,0
GENERATED VIA SPACETRACK.ORG API,18 SPCS,52365,STARLINK-3874,PAYLOAD,U,22045AL,2022-06-10 14:00:01,224,15.73211605,0.0002774,53.2139,229.8964,20.1934,73.5459,0,999,911,0.00037228,0.00051983,0,3489740,0 STARLINK-3874,1 52365U 22045AL  22161.58334491  .00051983  00000-0  37228-3 0  9994,2 52365  53.2139 229.8964 0002774  20.1934  73.5459 15.73211605  9110,2022-045AL,52365,6727.862,91.533,351.593,347.861,0
GENERATED VIA SPACETRACK.ORG API,18 SPCS,52365,STARLINK-3874,PAYLOAD,U,22045AL,2022-06-10 14:00:01,224,15.73211605,0.0002774,53.2139,229.8964,20.1934,73.5459,0,999,130,0.00037228,0.00051983,0,3489795,0 STARLINK-3874,1 52365U 22045AL  22161.58334491  .00051983  00000-0  37228-3 0  9994,2 52365  53.2139 229.8964 0002774  20.1934  73.5459 15.73211605  1303,2022-045AL,52365,6727.862,91.533,351.593,347.861,0
GENERATED VIA SPACETRACK.ORG API,18 SPCS,52365,STARLINK-3874,PAYLOAD,U,22045AL,2022-06-10 22:00:00,999936,15.73207476,0.0002392,53.2175,228.2429,17.2567,165.3198,0,999,916,-4.203e-05,-6.519e-05,0,3490163,0 STARLINK-3874,1 52365U 22045AL  22161.91667824 -.00006519  00000-0 -42030-4 0  9995,2 52365  53.2175 228.2429 0002392  17.2567 165.3198 15.73207476  9160,2022-045AL,52365,6727.874,91.533,351.348,348.13,0
GENERATED VIA SPACETRACK.ORG API,18 SPCS,52365,STARLINK-3874,PAYLOAD,U,22045AL,2022-06-10 22:00:00,999936,15.73207476,0.0002392,53.2175,228.2429,17.2567,165.3198,0,999,130,-4.203e-05,-6.519e-05,0,3490466,0 STARLINK-3874,1 52365U 22045AL  22161.91667824 -.00006519  00000-0 -42030-4 0  9995,2 52365  53.2175 228.2429 0002392  17.2567 165.3198 15.73207476  1308,2022-045AL,52365,6727.874,91.533,351.348,348.13,0
GENERATED VIA SPACETRACK.ORG API,18 SPCS,52365,STARLINK-3874,PAYLOAD,U,22045AL,2022-06-11 06:00:00,999648,15.73272722,0.0002409,53.2147,226.5939,15.7898,255.9022,0,999,921,-0.00050623,-0.000713,0,3491115,0 STARLINK-3874,1 52365U 22045AL  22162.25001157 -.00071300  00000-0 -50623-3 0  9990,2 52365  53.2147 226.5939 0002409  15.7898 255.9022 15.73272722  9219,2022-045AL,52365,6727.688,91.529,351.174,347.932,0
GENERATED VIA SPACETRACK.ORG API,18 SPCS,52365,STARLINK-3874,PAYLOAD,U,22045AL,2022-06-11 22:00:00,999936,15.73247184,0.0002664,53.2139,223.2962,14.4771,75.1409,0,999,932,-0.00039725,-0.00056126,0,3492068,0 STARLINK-3874,1 52365U 22045AL  22162.91667824 -.00056126  00000-0 -39725-3 0  9991,2 52365  53.2139 223.2962 0002664  14.4771  75.1409 15.73247184  9326,2022-045AL,52365,6727.761,91.53,351.418,347.833,0
GENERATED VIA SPACETRACK.ORG API,18 SPCS,52365,STARLINK-3874,PAYLOAD,U,22045AL,2022-06-11 22:00:00,999936,15.73247184,0.0002664,53.2139,223.2962,14.4771,75.1409,0,999,130,-0.00039725,-0.00056126,0,3492149,0 STARLINK-3874,1 52365U 22045AL  22162.91667824 -.00056126  00000-0 -39725-3 0  9991,2 52365  53.2139 223.2962 0002664  14.4771  75.1409 15.73247184  1306,2022-045AL,52365,6727.761,91.53,351.418,347.833,0
GENERATED VIA SPACETRACK.ORG API,18 SPCS,52365,STARLINK-3874,PAYLOAD,U,22045AL,2022-06-12 14:00:01,224,15.73207719,0.000296,53.2132,219.9991,17.0192,250.4824,0,999,942,-0.00022849,-0.00032584,0,3493120,0 STARLINK-3874,1 52365U 22045AL  22163.58334491 -.00032584  00000-0 -22849-3 0  9997,2 52365  53.2132 219.9991 0002960  17.0192 250.4824 15.73207719  9428,2022-045AL,52365,6727.873,91.533,351.73,347.747,0
GENERATED VIA SPACETRACK.ORG API,18 SPCS,52365,STARLINK-3874,PAYLOAD,U,22045AL,2022-06-12 14:00:01,224,15.73207719,0.000296,53.2132,219.9991,17.0192,250.4824,0,999,130,-0.00022849,-0.00032584,0,3493305,0 STARLINK-3874,1 52365U 22045AL  22163.58334491 -.00032584  00000-0 -22849-3 0  9997,2 52365  53.2132 219.9991 0002960  17.0192 250.4824 15.73207719  1307,2022-045AL,52365,6727.873,91.533,351.73,347.747,0
GENERATED VIA SPACETRACK.ORG API,18 SPCS,52365,STARLINK-3874,PAYLOAD,U,22045AL,2022-06-12 22:00:00,999936,15.73166671,0.0002684,53.2129,218.3475,15.7627,340.6784,0,999,130,0.00033504,0.00046599,0,3493781,0 STARLINK-3874,1 52365U 22045AL  22163.91667824  .00046599  00000-0  33504-3 0  9992,2 52365  53.2129 218.3475 0002684  15.7627 340.6784 15.73166671  1302,2022-045AL,52365,6727.99,91.535,351.661,348.049,0
GENERATED VIA SPACETRACK.ORG API,18 SPCS,52365,STARLINK-3874,PAYLOAD,U,22045AL,2022-06-13 06:00:02,160,15.73224385,0.0002703,53.213,216.6982,16.7568,68.6553,0,999,953,0.00012868,0.00017496,0,3494205,0 STARLINK-3874,1 52365U 22045AL  22164.25002315  .00017496  00000-0  12868-3 0  9992,2 52365  53.2130 216.6982 0002703  16.7568  68.6553 15.73224385  9536,2022-045AL,52365,6727.826,91.532,351.509,347.872,0
GENERATED VIA SPACETRACK.ORG API,18 SPCS,52365,STARLINK-3874,PAYLOAD,U,22045AL,2022-06-13 14:00:01,224,15.73226131,0.0002968,53.2133,215.0504,13.4047,160.9141,0,999,130,-0.00016453,-0.0002368,0,3494620,0 STARLINK-3874,1 52365U 22045AL  22164.58334491 -.00023680  00000-0 -16453-3 0  9999,2 52365  53.2133 215.0504 0002968  13.4047 160.9141 15.73226131  1308,2022-045AL,52365,6727.821,91.532,351.682,347.689,0
GENERATED VIA SPACETRACK.ORG API,18 SPCS,52365,STARLINK-3874,PAYLOAD,U,22045AL,2022-06-13 22:00:00,999936,15.73206282,0.0002831,53.2139,213.3987,14.7268,248.5831,0,999,963,-0.0001385,-0.00020023,0,3494998,0 STARLINK-3874,1 52365U 22045AL  22164.91667824 -.00020023  00000-0 -13850-3 0  9991,2 52365  53.2139 213.3987 0002831  14.7268 248.5831 15.73206282  9636,2022-045AL,52365,6727.877,91.533,351.647,347.838,0
GENERATED VIA SPACETRACK.ORG API,18 SPCS,52365,STARLINK-3874,PAYLOAD,U,22045AL,2022-06-13 22:00:00,999936,15.73206282,0.0002831,53.2139,213.3987,14.7268,248.5831,0,999,130,-0.0001385,-0.00020023,0,3495597,0 STARLINK-3874,1 52365U 22045AL  22164.91667824 -.00020023  00000-0 -13850-3 0  9991,2 52365  53.2139 213.3987 0002831  14.7268 248.5831 15.73206282  1302,2022-045AL,52365,6727.877,91.533,351.647,347.838,0
GENERATED VIA SPACETRACK.ORG API,18 SPCS,52365,STARLINK-3874,PAYLOAD,U,22045AL,2022-06-14 14:00:01,224,15.73162572,0.000307,53.2138,210.1016,12.0822,69.072,0,999,130,0.00010764,0.00014489,0,3495970,0 STARLINK-3874,1 52365U 22045AL  22165.58334491  .00014489  00000-0  10764-3 0  9994,2 52365  53.2138 210.1016 0003070  12.0822  69.0720 15.73162572  1308,2022-045AL,52365,6728.002,91.535,351.932,347.801,0
GENERATED VIA SPACETRACK.ORG API,18 SPCS,52365,STARLINK-3874,PAYLOAD,U,22045AL,2022-06-14 22:00:00,999936,15.73125476,0.0002778,53.2136,208.45,8.9565,161.0965,0,999,130,0.00032515,0.00045118,0,3496199,0 STARLINK-3874,1 52365U 22045AL  22165.91667824  .00045118  00000-0  32515-3 0  9991,2 52365  53.2136 208.4500 0002778   8.9565 161.0965 15.73125476  1302,2022-045AL,52365,6728.108,91.538,351.842,348.104,0
GENERATED VIA SPACETRACK.ORG API,18 SPCS,52365,STARLINK-3874,PAYLOAD,U,22045AL,2022-06-15 06:00:00,999648,15.7317353,0.0002818,53.2138,206.8013,11.2619,247.6427,0,999,984,0.00010483,0.000141,0,3496426,0 STARLINK-3874,1 52365U 22045AL  22166.25001157  .00014100  00000-0  10483-3 0  9997,2 52365  53.2138 206.8013 0002818  11.2619 247.6427 15.73173530  9842,2022-045AL,52365,6727.971,91.535,351.732,347.94,0
GENERATED VIA SPACETRACK.ORG API,18 SPCS,52365,STARLINK-3874,PAYLOAD,U,22045AL,2022-06-15 14:00:01,224,15.7317079,0.0003102,53.2136,205.1532,9.7222,338.0922,0,999,130,0.00060936,0.00085682,0,3496794,0 STARLINK-3874,1 52365U 22045AL  22166.58334491  .00085682  00000-0  60936-3 0  9994,2 52365  53.2136 205.1532 0003102   9.7222 338.0922 15.73170790  1300,2022-045AL,52365,6727.978,91.535,351.93,347.756,0
GENERATED VIA SPACETRACK.ORG API,18 SPCS,52365,STARLINK-3874,PAYLOAD,U,22045AL,2022-06-15 22:00:00,999936,15.73230235,0.0002842,53.2139,203.5015,8.8045,67.9632,0,999,995,-7.1934e-05,-0.00010721,0,3496962,0 STARLINK-3874,1 52365U 22045AL  22166.91667824 -.00010721  00000-0 -71934-4 0  9995,2 52365  53.2139 203.5015 0002842   8.8045  67.9632 15.73230235  9950,2022-045AL,52365,6727.809,91.531,351.586,347.762,0
GENERATED VIA SPACETRACK.ORG API,18 SPCS,52365,STARLINK-3874,PAYLOAD,U,22045AL,2022-06-15 22:00:00,999936,15.73230235,0.0002842,53.2139,203.5015,8.8045,67.9632,0,999,130,-7.1934e-05,-0.00010721,0,3496999,0 STARLINK-3874,1 52365U 22045AL  22166.91667824 -.00010721  00000-0 -71934-4 0  9995,2 52365  53.2139 203.5015 0002842   8.8045  67.9632 15.73230235  1301,2022-045AL,52365,6727.809,91.531,351.586,347.762,0
